ID,name,longitude,latitude,address,region,country,destination_id
4,Golubijera,14.1763,45.0804,Golubijera,,Kroatien,
5,9 eylül batığı,26.5545,38.644,,,,
7,Sea Chart 1,98.1422,8.5806,,,,
8,Balito,-15.7011,27.7734,"Calle Anfi del Mar, 11D, 35129 Mogán, Las Palmas, Spain",Canarias,Spain,
10,Koh Matra,99.3585,10.4009,,,,
13,Koh La Wa,99.3123,10.3624,,,,
18,Koh Ranka Chio / เกาะรังกาจิว,99.3018,10.3183,,,,
29,Goliyagala,79.9903,6.1758,,,,
30,Jacobs Table,93.145,12.1084,,,,
31,Barracuda City,93.1495,12.1734,,,,
33,Pit Stop,93.0386,12.175,,,,
34,Stevens Ledge,93.0153,12.1662,,,,
35,Two Fathom Rock,92.9452,12.1701,,,,
36,Nursery,92.9514,12.0814,India,,India,
38,Sea Fan City,93.0287,11.8741,,,,
39,Four Rock,93.0352,11.8469,,,,
40,Theligala,79.9891,6.1635,,,,
41,"Sandy Island Drift, Carriacou",-61.4814,12.4863,"Sandy Island, Grenada",,Grenada,
44,The Farallon Islands,-79.6362,9.6442,"Portobelo District, Panama",Colón Province,Panama,
48,"Sandy Island Garden, Carriacou",-61.4837,12.4857,"Sandy Island, Grenada",,Grenada,
49,"Sandy Island Lighthouse, Carriacou",-61.4797,12.4864,,,Saint Vincent and the Grenadines,
51,Bell Island,-122.9799,48.5962,"Eastsound, WA 98245, USA",Washington,United States,
54,Kiralagala,79.9861,6.1471,,,,
57,Madagala,80.0182,6.1256,,,,
58,Ralagala,80.0271,6.1107,,,,
59,Crissopigi Cross,80.032,6.0911,,,,
60,Rangoon,80.0854,6.0898,,,,
85,Villingili House Reef,73.4829,4.1756,"Rahvehi Higun, Malé, Maldives",Male,Maldives,
87,창원실내수영장,128.6698,35.232,"48-3 Dudae-dong, Uichang-gu, Gyeongsangnam-do, South Korea",Gyeongsangnam-do,South Korea,
89,Travelers Wall,-77.513,25.0727,,,,
91,Grisslinge havsbad,18.4499,59.3123,"Skärgårdsvägen 156-158, 139 36 Värmdö, Sweden",Stockholms län,Sweden,
92,Cayo Frances,-79.1791,22.6347,"Unnamed Road, Cuba",,Cuba,
99,"Liegewiese Insenborn, Sauertalsperre",5.886,49.9063,"14 Insenborn, 9660 Ënsber, Luxembourg",Distrikt Dikrech,Luxembourg,
100,Insenborn Hafen,5.8828,49.9041,"11 Insenborn, 9660 Ënsber, Luxembourg",Distrikt Dikrech,Luxembourg,
111,My Garden,-17.1636,32.8651,"Rue do Forte de S. João Baptista 7A, 9270-095 Porto Moniz, Portugal",Madeira,Portugal,
112,Baixa do Petróleo,-17.1636,32.8678,"Rue do Forte de S. João Baptista 7A, 9270-095 Porto Moniz, Portugal",Madeira,Portugal,
113,Barracuda Reef ,-77.1902,25.0581,,,,
119,Stone House,-159.471,21.8731,"5154 Maulili Rd, Koloa, HI 96756, USA",Hawaii,United States,
82,Sharkies Hideaway Part 2,-61.4933,12.488,,,,
168,Lofos,32.2556,34.431,,,,
169,"White River, Cyprus",32.1873,34.5778,,,,
170,St. George Kakoskali,32.2,35.4487,,,,
171,Blue Lagoon,32.1908,35.4573,,,,
172,Fontana Amoroza,32.1828,35.5467,,,,
137,"Gleanloch Lake, Gleanloch Farms, Texas",-95.5696,30.0364,"139 Manor Lake Estates Dr, Spring, TX 77379, USA",Texas,United States,
139,Bus Stop,-80.0708,19.6888,"N Coast Rd E, Cayman Islands",Sister Islands,Cayman Islands,
140,Pulau Hantu Nudi Garden,103.7536,1.2252,"Unnamed Road, Singapore",,Singapore,
143,Raffles Light House West ,103.7404,1.1605,,,,
146,Vaagali Faru,73.3528,3.9611,,,,
147,Vaagali Outside,73.3516,3.9489,,,,
148,Rannalhi Bodu Faru,73.3512,3.9025,"Unnamed Road, Maldives",,Maldives,
149,Jack Faru,73.3563,3.8943,"Unnamed Road, Maldives",,Maldives,
150,Ihi Reef,73.3546,3.8871,,,,
151,Ram Faru,73.3583,3.8819,"Unnamed Road, Maldives",North Central Province,Maldives,
152,Lhohi Faru Thila,73.3586,3.8741,"Unnamed Road, Maldives",North Central Province,Maldives,
153,Lhohi Kandu Thila,73.3627,3.8594,,,,
154,Lhohi Bodu Kandu,73.366,3.8431,,,,
155,Coral Faru,73.3737,3.822,,,,
156,Origandu Finolhu,73.39,3.8068,,,,
157,Rihivelhi Caves,73.3825,3.8143,,,,
159,GooDiving Pool,-16.603,28.0279,"Av. J.M. Galván Bello, 11, 38639 Oasis del Sur, Santa Cruz de Tenerife, Spagna",,Spagna,
160,El Monasterio,-13.8684,28.3637,,Kanarische Inseln,Spanien,
161,"New Nuevo Horizonte, Fuerteventura",-13.8499,28.4214,,Kanarische Inseln,Spanien,
162,Koludarac Cave,14.4273,44.5444,"Koludarac ul. 8, 51550, Mali Lošinj, Croatia",Primorsko-goranska županija,Croatia,
163,"Katedrala, Premuda Island",14.638,44.3128,"Unnamed Road, 23294, Premuda, Croatia",Zadarska županija,Croatia,
164,Anfi Beach,-15.6966,27.7707,"Calle de Anfi del Mar, Mogán, Las Palmas, Spain",,Spain,
173,Cathedral Reef,32.1576,35.0855,,,,
134,Kurali Kandu,73.3794,2.7586,"Meemu Atoll, Maldives",Central Province,Maldives,
225,"SS Cape Matapan (wreck), Cape Town, South Africa",18.5481,-34.9481,,,,
227,"MV Romelia (Wreck), Cape Town",18.3359,-34.9362,Atlantic Ocean,,,
185,"Hoi Siong, wreck",57.3065,-20.4298,Mauritius,,Mauritius,
187,Ile Plate,57.6436,-19.8759,"Unnamed Road, Mauritius",,Mauritius,
188,"Ile Serpent, Mauritius",57.8049,-19.8227,,,,
192,L’Eveillé,57.3555,-20.2857,"Coastal Rd, Flic en Flac, Mauritius",Rivière Noire District,Mauritius,
193,"L&#039;Orient, wreck",57.3526,-20.2939,Mauritius,,Mauritius,
195,Moe,57.3551,-20.2776,,,,
197,Parc,57.366,-20.2665,"Klondike Rd, Flic en Flac, Mauritius",Rivière Noire District,Mauritius,
200,Rempart L’Herbe,57.3546,-20.2766,,,,
201,Swiss Drop,57.3571,-20.279,"Coastal Rd, Flic en Flac, Mauritius",Rivière Noire District,Mauritius,
202,Rempart Bartelmy,57.3751,-20.2517,,,,
205,"Snake Reef, Mauritius",57.3767,-20.2459,Mauritius,,Mauritius,
208,"Shark Pit, Mauritius",57.6583,-19.8633,Mauritius,,Mauritius,
211,"Tug 2, Wreck",57.378,-20.2491,"Unnamed Road, Mauritius",Rivière Noire District,Mauritius,
212,Wal,57.3581,-20.2734,,,,
213,White Tip,57.3292,-20.4941,,,,
214,Cernicalo,-78.8897,-33.6312,Chile,,Chile,
216,Dave’s Place,-82.9953,12.2772,"Unnamed Road, Nicaragua",Región Autónoma de la Costa Caribe Sur,Nicaragua,
217,My Place,-82.9964,12.3146,Nicaragua,,Nicaragua,
229,"MV Bos 400, wreck",18.3044,-34.0358,"Unnamed Road, Hout Bay, Cape Town, 7872, South Africa",Western Cape,South Africa,
230,"MV Katsu Maru (Wreck), Cape Town",18.595,-34.3028,,,,
232,"SAS Pietermaritzburg, wreck",18.5958,-34.3008,South Africa,,South Africa,
233,"MFV Orotava (Wreck), Cape Town",18.6878,-34.2731,,,,
234,"SAS Good Hope, wreck",18.7031,-34.2958,,,,
235,"MV Rockeater, wreck",18.7042,-34.3042,,,,
236,"SATS General Botha, wreck",18.7139,-34.3969,South Africa,,South Africa,
237,"SAS Bloemfontein, wreck",18.67,-34.2429,,,,
238,"SAS Fleur, wreck",18.561,-34.1743,,,,
183,Corail Rose,57.3585,-20.2731,Mauritius,,Mauritius,
242,Friedenau Dam,16.746,-22.6938,"D1418, Namibia",Khomas Region,Namibia,
243,Harasib,17.7928,-19.4969,"Otjozondjupa Region, Namibia",Otjozondjupa Region,Namibia,
244,Lake Otjikoto,17.5497,-19.195,"B1, Namibia",Oshikoto Region,Namibia,
261,Umzimai Wall,30.7617,-30.3718,,,,
266,"Coral Gardens (Oudekraal), Cape Town, South Africa",18.5506,-34.0583,"Punt Rd, Philippi, Cape Town, 7750, South Africa",Western Cape,South Africa,
267,13th Apostle,18.5728,-34.1183,South Africa,,South Africa,
268,Star Walls,18.3242,-34.1628,"De Anker, Cape Peninsula, Cape Town, South Africa",Western Cape,South Africa,
269,Stonehenge,18.3761,-34.2664,"Unnamed Road, Cape Point, Cape Town, South Africa",Western Cape,South Africa,
270,Kalk Bay Harbour Wall,18.7019,-34.3353,South Africa,,South Africa,
271,Target Reef,18.5128,-34.3386,South Africa,,South Africa,
274,Tivoli Pinnacles,18.6625,-34.4144,South Africa,,South Africa,
275,Rambler Rock,18.6997,-34.4233,South Africa,,South Africa,
276,Noah’s Ark,18.5144,-34.3314,South Africa,,South Africa,
277,Maidstone Rock Reefs,18.5794,-34.3447,South Africa,,South Africa,
278,Photographer’s Reef,18.5706,-34.4164,South Africa,,South Africa,
279,Outer Photographer’s Reef,18.6994,-34.3994,South Africa,,South Africa,
281,A-Frame,18.6339,-34.3344,South Africa,,South Africa,
282,Wave Rock,18.7267,-34.305,,,,
283,Miller’s Point,18.5808,-34.445,South Africa,,South Africa,
285,Castle Rocks,18.6308,-34.3314,South Africa,,South Africa,
286,"Outer Castle , Cape Town, South Africa",18.4833,-34.3222,,,,
287,"Pie Rock, Cape Town, South Africa",18.5014,-34.3403,,,,
288,Batsata Maze,18.7303,-34.4008,South Africa,,South Africa,
289,"Whittle Rock, Cape Town, South Africa",18.7597,-34.4594,,,,
292,Balcony,19.0531,-34.4261,,,,
294,Amazon,35.6319,-23.8992,,,,
295,Buddies,35.5522,-23.9908,,,,
297,Creche,35.7297,-23.9517,,,,
298,Serengetti,35.5636,-24.0111,,,,
299,Rocha Bonita,35.6592,-23.8564,,,,
300,Lighthouse,35.715,-23.9186,,,,
301,Mikes Reef,35.7111,-24.0019,,,,
302,Salon,35.7164,-23.9708,,,,
304,Sherwood,35.6861,-23.9472,,,,
241,"Dragons Breath, Namibia",17.7834,-19.517,"Otjozondjupa Region, Namibia",Otjozondjupa Region,Namibia,
308,Stalin,35.8225,-23.8492,,,,
317,Disneyland,35.6936,-24.2675,,,,
318,Tombstone,35.6936,-24.3342,,,,
328,Paindane Express,35.6664,-24.3117,,,,
309,Manta,35.6447,-24.2047,,,,
311,Banners,35.6611,-23.9125,,,,
312,Manta Pinnacles,35.6539,-24.1317,,,,
313,Manta Canyons,35.6669,-24.1939,,,,
314,XTC North,35.6161,-24.0556,,,,
315,XTC,35.5933,-24.0894,,,,
319,Morne,35.6994,-24.035,,,,
320,Pao Rock,35.6025,-24.0531,,,,
321,Vegas,35.6639,-24.0742,,,,
322,Lego,35.6353,-24.0633,,,,
323,Guinjata Caves,35.6119,-24.1056,,,,
324,Batfish Pinnacle,35.5811,-24.1072,,,,
325,Crocks,35.7025,-24.1631,,,,
327,Hard Rock,35.6067,-24.1678,,,,
329,Island Rock,35.4844,-24.1692,,,,
336,Ingram Street Bridge,-117.2868,32.7607,"San Diego County, CA, USA",California,United States,
338,Flat Rock - Blue Corner,153.5637,-27.3871,Point  Lookout   Australia,,Australia,
347,케이스포,129.093,35.2388,"1730 Jungang-daero, Bugok 3(sam)-dong, Geumjeong-gu, Busan, South Korea",Busan,South Korea,
348,Höbarthwand ,13.8053,47.9028,"Traunsteinstraße 123, 4810 Gmunden, Austria",Oberösterreich,Austria,
354,Tae Nok Rock,99.9416,9.7038,,,,
356,Fushi Kandu ,73.5555,2.0666,"Laamu Atoll, Maldives",South Central Province,Maldives,
357,Maabaidhoo Kandu,73.537,2.0407,"Unnamed Road, Maabaidhoo, Maldives",South Central Province,Maldives,
812,Kimud Shoal,124.1335,11.3004,Philippines,,Philippines,
307,Chamber of Secrets,35.6256,-24.0331,,,,
492,Gretchens Shell,-86.3455,16.4291,,,,
493,Classroom,-86.3409,16.4295,,,,
494,Edwards Place,-86.3386,16.4301,,,,
495,Marianas Dream,-86.3337,16.4317,,,,
6586,오대산,128.7931,37.9428,,,,
489,Two Crabs,-86.3571,16.4259,"Punta Blanca Rd, Punta Blanca, Honduras",Bay Islands Department,Honduras,
564,Fun Kairifah,72.9639,4.4296,"Unnamed Road, Thoddoo, Maldives",,Maldives,
565,Thoddoo Beyru,72.9471,4.4427,"Vaau Magu, Thoddoo, Maldives",North Central Province,Maldives,
566,Calamareo,-13.8549,28.7516,,,,
570,"Les Dos Torres, Blanes",2.8369,41.6728,,,,
573,Cobra Head,-119.6904,33.9722,"Santa Cruz Island, California 93001, USA",California,United States,
576,Thoddoo Muraka Frau,72.9553,4.4288,"Immagu, Thoddoo, Maldives",North Central Province,Maldives,
577,Vella Uhley Than,72.9603,4.4281,"Unnamed Road, Thoddoo, Maldives",,Maldives,
579,Miyaru Uhley Than,72.9428,4.4396,,,,
580,Thoddoo Beyru,72.9455,4.4446,,,,
581,Thoddoo Beyru,72.9531,4.4481,"Valhu Magu, Thoddoo, Maldives",North Central Province,Maldives,
582,Thoddoo Band´hura Uthuru,72.9658,4.4413,"Unnamed Road, Thoddoo, Maldives",North Central Province,Maldives,
583,Thoddoo Band`hura Dekunu,72.9665,4.4376,"Thoddoo, Maldives",,Maldives,
584,Thoddoo Rangabeelu,72.9629,4.4449,"Valhu Magu, Thoddoo, Maldives",North Central Province,Maldives,
585,Maha Furi,72.9449,4.4381,"Unnamed Road, Thoddoo, Maldives",North Central Province,Maldives,
6587,엉터리,128.7965,37.9433,,,,
563,Cara a Cara,-86.5201,16.2874,Honduras,,Honduras,
603,Pispotwrak,3.9259,52.1943,,,,
611,Hin Muang,98.8477,7.1453,,Changwat Krabi,Thailand,
592,Kiki Reef - Dragon Mouth,73.4613,4.1742,"Kaafu Atoll, Maldives",North Central Province,Maldives,
593,Coches Prietos,-119.7048,33.9663,"Ventura, CA 93001, USA",California,United States,
594,Roque de Bonanza,-17.9413,27.7291,"HI-2, 38910 Villa de Valverde, Santa Cruz de Tenerife, Spain",Canarias,Spain,
595,Punta de Miguel,-17.9587,27.6918,,,,
597,Gull Rock,117.9975,-35.0205,"Ledge Point Rd, Kalgan WA 6330, Australia",Western Australia,Australia,
598,Herold Reef,118.0373,-35.0328,,WA,Australia,
602,Halg El Shouni,34.6995,25.4031,,Rotes Meer,Ägypten,
604,Gyarmati Dezső Sportuszoda,20.3171,46.4101,"Hódmezővásárhely, Török Sándor Strandfürdő és Gyarmati Dezső Sportuszoda, Termál Kemping, Ady Endre út 1, 6800 Hungary",Csongrád,Hungary,
605,Eel Garden,-72.3414,21.8348,,Turks and Caicos Islands,Turks and Caicos Islands,
608,Fingers Reef,-80.5595,24.8825,"Monroe County, FL, USA",Florida,United States,
609,K26,127.5163,37.7029,"61-2 Goseong-ri, Oeseo-myeon, Gapyeong-gun, Gyeonggi-do, South Korea",Gyeonggi-do,South Korea,
610,Little Beach,118.1961,-34.9713,"Valliant Rd, Nanarup WA 6330, Australia",Western Australia,Australia,
613,Fortalezza,-13.8522,28.3891,"Calle Tenerife, 35610 Antigua, Las Palmas, Spain",Canarias,Spain,
619,Budweiser Bar (Wreck),-80.0385,26.4792,"Palm Beach County, FL, USA",Florida,United States,
623,M/V Castor (Wreck),-80.0371,26.4788,"Palm Beach County, FL, USA",Florida,United States,
628,Erojacks,-80.1072,26.0623,"7904 N Ocean Dr, Dania Beach, FL 33004, USA",Florida,United States,
633,Hydro Atlantic (Wreck),-80.0507,26.325,"Palm Beach County, FL, USA",Florida,United States,
926,Soldier’s Cabin Bay,100.9524,12.5249,,Chonburi,Thailand,
591,Monkey Point,-64.5707,18.4638,"Other Islands, British Virgin Islands",Other Islands,British Virgin Islands,
646,Moray Bend,-80.058,26.336,"Palm Beach County, FL, USA",Florida,United States,
648,Noulla Express (Wreck),-80.0575,26.3213,"Palm Beach County, FL, USA",Florida,United States,
669,"United Caribbean Wreck, Florida",-80.059,26.3211,,,,
670,Punta Tiñosa Cave,-13.6812,28.9198,"Calle Piedra Negra, 1, 35510 Tías, Las Palmas, Spain",Canarias,Spain,
672,Little Finger Reef,-79.893,26.4289,United States,,United States,
673,"Chien Tong, wreck",-62.9981,17.4836,"Van Tonningen Weg, Oranjestad, Caribbean Netherlands",,Caribbean Netherlands,
674,Princess Corner,-62.9869,17.4639,Caribbean Netherlands,,Caribbean Netherlands,
676,Gato Island,124.0187,11.4466,Philippines,,Philippines,
679,Heian Maru,151.855,7.3713,,,,
681,Playa de Menduíña,-8.8216,42.2958,"Lugar Menduiña, 74, 36945 Menduíña, Pontevedra, Espanha",,Espanha,
682,"Toledo Bend Reservoir, Louisiana",-93.7573,31.5895,"5498 Hwy 3229, Zwolle, LA 71486, USA",Louisiana,United States,
684,Tercera Usina,-64.3242,-32.1897,"Unnamed Road, Córdoba, Argentina",,Argentina,
685,Bayside Bridge,-82.6089,27.9716,"Courtney Campbell Causeway Trail, 8549-8597 Campbell Causeway Access Rd S, Tampa, FL 33615, USA",Florida,United States,
645,Moonshot (Wreck),-80.0638,26.1107,"Broward County, FL, USA",Florida,United States,
701,Feydhoo Blue,73.479,4.2123,,,,
702,Kiki Blue,73.4607,4.1718,,,,
703,Bodu Kalhi Beyru,73.5402,4.1861,"Midhili Magu, Maldives",,Maldives,
715,Mondo Mio,73.4062,4.6451,,,,
718,Tiger Reef ,38.8697,21.6598,,,,
719,Alsoflani Reef  شعب السفلاني,36.9351,24.9844,,,,
720,Nezar Reef شعب نزار ,38.858,22.3269,,,,
721,هيرات السعودية,39.1046,21.7743,,منطقة مكة,المملكة العربية السعودية,
746,Digu Thila,72.9672,3.785,"Outer Beach Rd, Omadhoo, Maldives",North Central Province,Maldives,
748,Kuda Giri,72.9187,3.6322,,,,
749,Hudhu Thila,72.9402,3.5698,,,,
750,Seven Heaven,72.9433,3.5652,,,,
751,Thinfushi Thila,72.9348,3.5569,,,,
752,Broken Rock,72.9369,3.5556,,,,
753,Fun Thila,72.9294,3.5576,,,,
700,"Cantera, Tandil",-58.9699,-37.3512,"Tandil Partido, Buenos Aires Province, Argentina",Buenos Aires Province,Argentina,
759,"Trindade Is. , Tartarugas ",-29.3029,-20.5149,Brazil,,Brazil,
764,"Trindade Is., Príncipe ",-29.316,-20.523,Brazil,,Brazil,
769,Akirifushi Caves,73.4029,4.6342,,,,
770,Kiri Kiri,73.3996,4.6345,,,,
771,Ayara Bay,98.2592,7.9402,,Phuket,Thailand,
773,Thumb Rock,-64.5082,18.3681,,,,
774,Uthuru Faru,73.4129,4.6445,,,,
775,Kuda Finolhu,73.4184,4.6385,,,,
776,Birds Island,73.438,4.6305,,,,
777,Kuda Faru,73.3792,4.5695,,,,
778,Roque la Mar,-17.9664,27.6789,Spain,,Spain,
779,هير شتيه Heer Shrayah,50.7174,26.4105,,,,
781,Koh Waen,99.2469,7.3786,"Ko Libong, Kantang District, Trang, Thailand",Trang,Thailand,
782,Lost Lake Cave,105.629,-10.4549,,,,
783,Eidsvold  Wreck,105.6529,-10.4425,,,,
784,Alcatrazes - Raia,-45.6884,-24.0937,Brazil,,Brazil,
789,White bay,-64.7608,18.4411,"White Bay, British Virgin Islands",Jost Van Dyke,British Virgin Islands,
791,Talaga Point,177.2162,-17.1684,,,,
793,Cuban Freighter Reef,-80.1198,25.6927,"Miami-Dade County, FL, USA",Florida,United States,
795,Hurolhi Beyru,72.7149,3.5438,"Alifu Dhaalu Atoll, Maldives",North Central Province,Maldives,
796,Bridge Span 6,-85.8879,30.1487,Gulf of Mexico,,United States,
798,Jupiter Wreck Trek,-80.0004,26.9445,United States,,United States,
800,Grey Ghost (Wreck),-85.8803,29.9964,Gulf of Mexico,,United States,
801,Bridge Span 10,-85.7427,30.0969,"Bay County, FL, USA",Florida,United States,
802,"La Bomba, Lago Piedra Moras",-64.2744,-32.1822,"Complejo La Bomba Córdoba, Argentina",,Argentina,
804,Iruveli Lagoon,72.959,2.9315,,,Maldives,
805,CNC HOUSE POINT ,123.987,10.2631,,,필리핀,
806,Holiday Beyru,72.8218,3.4664,"Alifu Dhaalu Atoll, Maldives",North Central Province,Maldives,
807,Toi Beach,138.7836,34.9048,"19-1 Toi, Izu, Shizuoka 410-3302, Japan",Shizuoka,Japan,
808,Mid Reef,-79.9914,26.7888,"Palm Beach County, FL, USA",Florida,United States,
811,Car Pile - Vaersenbaai,-69.0044,12.1558,"Weg Naar Bullenbaai, Sint Michiel, Curaçao",Curaçao,Curaçao,
6588,보물섬,128.7972,37.942,,,,
755,Angaga Thila,72.8183,3.6367,"Alifu Dhaalu Atoll, Maldives",North Central Province,Maldives,
817,SS Christina,-5.2341,50.4184,,,,
818,U1021,-5.1188,50.5363,,,,
819,Vavathi Kurolhi / Christmas Tree,73.2528,5.814,,,,
821,"Barracuda Point, Carriacou",-61.5084,12.4766,"Barbechos, Grenada",Carriacou and Petite Martinique,Grenada,
822,"Barrel, Carriacou",-61.4921,12.4539,"Hermitage, Tyrell Bay, Grenada",,Grenada,
823,"Black Rocks, Carriacou",-61.4884,12.3938,,,Saint Vincent and the Grenadines,
824,"Tugboat Boris, wreck",-61.4908,12.4885,,,Saint Vincent and the Grenadines,
825,"Deep Blue, Carriacou",-61.51,12.4772,"Barbechos, Grenada",Carriacou and Petite Martinique,Grenada,
826,"Garden, Carriacou",-61.5015,12.4363,,,Saint Vincent and the Grenadines,
827,"Jack-A-Dan West, Carriacou",-61.467,12.4943,,,,
828,"Point Cistern, Carriacou",-61.4967,12.4797,"Paseo del mar 1, Grenada",Carriacou and Petite Martinique,Grenada,
830,Saline Express,-61.4679,12.4339,,,Saint Vincent and the Grenadines,
831,"Shark Hotel, Carriacou",-61.4873,12.4004,,,Saint Vincent and the Grenadines,
832,"Triggerfish Alley, Carriacou",-61.4522,12.5069,,,Saint Vincent and the Grenadines,
833,"Layer Cake, Carriacou",-61.478,12.4212,,,Saint Vincent and the Grenadines,
834,"Gun Point, Carriacou",-61.4582,12.5091,,,Saint Vincent and the Grenadines,
835,"Jack Iron Point, Carriacou",-61.5011,12.4752,,,Saint Vincent and the Grenadines,
836,"Valan’s Wall, Carriacou",-61.4744,12.489,,,Saint Vincent and the Grenadines,
837,"Shark Canyon, Carriacou",-61.4732,12.4121,,,Saint Vincent and the Grenadines,
838,"The Rose Wreck, Carriacou",-61.5025,12.4695,"Camino la Farfana, Grenada",,Grenada,
839,"Tropical Hill, Carriacou",-61.4996,12.4391,,,Saint Vincent and the Grenadines,
840,Sharkies Hideaway Part 1,-61.4904,12.4883,,,Saint Vincent and the Grenadines,
841,"Coral Nursery, Carriacou",-61.5683,12.4951,,,Saint Vincent and the Grenadines,
842,Wash Rock,-156.9292,20.7333,"Kapihaa Pl, Lanai City, HI 96763, USA",Hawaii,United States,
846,Maakurandhoo,73.309,5.6998,"Main Rd, Maldives",,Maldives,
849,Playing Field,-81.105,19.2928,,Cayman Islands,Cayman Islands,
850,Hanois Lighthouse ,-2.6846,49.4324,,Guernsey,United Kingdom,
858,Koodoo Corner,73.0535,0.6031,"Gaafu Alifu Atoll, Maldives",Upper South Province,Maldives,
859,Than&#039;buru Canyon,73.2288,5.7181,,,,
860,Velidhoo Caves,73.2702,5.6618,"Bodu Magu, Velidhoo, Maldives",,Maldives,
861,Saeedh Ge&#039;Hadhiyaa,73.3027,5.6508,,,,
862,Raafushi Corner,73.2924,5.6455,,,,
863,Orimas Thila / Shark Point,73.2526,5.8471,,,,
864,Minaavaru Kurolhi,73.3186,5.7821,,,,
865,Thanburu Faru,73.2345,5.7121,,,,
866,Santa Eulália ,-8.2105,37.0676,,Faro,Portugal,
867,Santa Eulalia 2,-8.2154,37.0582,Portugal,,Portugal,
868,Rainbow Warrior ,173.935,-34.9748,Cavalli  Islands ,,New Zealand,
869,Jardin de Fajou,-61.5706,16.3552,,,,
816,SS Orfordness,-5.1818,50.4263,,,,
878,Chapeirão Mau Mau,-38.6953,-17.9692,Brazil,,Brazil,
879,Knob Hill,-156.9037,20.7026,"Maui County, HI, USA",Hawaii,United States,
880,Chapeirão Jean Pierre,-38.6733,-17.9629,,,,
881,"Gordon Rocks, Galapagos",-90.1432,-0.5675,Ecuador,,Ecuador,
883,Jabal Allith Island South,40.1418,19.9542,Saudi Arabia,,Saudi Arabia,
885,Jabal Allith Island East,40.1288,19.9833,Saudi Arabia,,Saudi Arabia,
890,General Store,-159.5232,21.868,"Kauai County, HI, USA",Hawaii,United States,
892,Blue Hole Spring,-82.7684,29.9641,"Midpoint Trail, Fort White, FL 32038, USA",Florida,United States,
893,Maupiti Lagon,-152.261,-16.4691,,,,
895,El Canyon,-110.7983,19.31,Mexico,,Mexico,
896,Roca Partida,-112.0655,19.0748,Mexico,,Mexico,
897,Isla Espíritu Santo,-110.3365,24.4838,"La Paz, Baja California Sur, Mexico",Baja California Sur,Mexico,
899,Kandu Faru,72.8959,3.9824,,,,
900,Kuata Back Reef,177.132,-17.3614,Fiji,,Fiji,
905,Cuevitas,-13.8091,28.7473,,Kanarische Inseln,Spanien,
909,Sola Corner,72.8341,5.4847,"Raa Atoll, Maldives",North Province,Maldives,
911,Nagili Thila,72.98,5.4529,"Meedhupparu, Maldives, Maldives",North Province,Maldives,
912,Vadhoo Thila,72.9841,5.4008,"Raa Atoll, Maldives",North Province,Maldives,
913,Koroshigiri Canyon,72.8711,5.5091,"Raa Atoll, Maldives",North Province,Maldives,
914,Gordon’s Drop - 5 Mile Reef,32.6951,-27.4933,,,,
915,Phantom Rock Corner,177.1387,-17.3632,"Western Division, Fiji",Western Division,Fiji,
917,De La Salle (Wreck),-77.3196,25.0927,"1 Casino Drive, The Bahamas",New Providence,The Bahamas,
920,Alofi Wharf,-169.921,-19.0529,"Unnamed Road, Alofi, Niue",Alofi,Niue,
921,Blue Bead Hole,-62.9919,17.4769,"Van Tonningenweg, Oranjestad, Caribbean Netherlands",Sint Eustatius,Caribbean Netherlands,
922,Blocks,-62.9853,17.4642,"Van Tonningenweg, Oranjestad, Caribbean Netherlands",Sint Eustatius,Caribbean Netherlands,
923,Ledges 2,-62.9856,17.4622,Caribbean Netherlands,,Caribbean Netherlands,
925,Aow Leuk,99.84,10.071,"Golf von, Thailand",Chang Wat Surat Thani,Thailand,
6589,마라도,128.7968,37.9492,,,,
876,Lipová spodní lom,14.343,51.0047,"Lipová 221, 407 81 Lipová, Czechia",Ústecký kraj,Czechia,
932,blue coral(블루코랄),126.599,33.2334,"Bomok-dong, Seogwipo-si, Jeju-do, South Korea",Jeju-do,South Korea,
934,Atlantis(아틀란티스),126.3615,33.2324,"Nandeureu-ro, Andeok-myeon, Seogwipo-si, Jeju-do, South Korea",Jeju-do,South Korea,
935,artificial fishing banks (인공어초),126.3603,33.2323,"Changcheon-ri, Andeok-myeon, Seogwipo-si, Jeju-do, South Korea",Jeju-do,South Korea,
936,cliff (수중 박수기정),126.3589,33.2324,"Changcheon-ri, Andeok-myeon, Seogwipo-si, Jeju-do, South Korea",Jeju-do,South Korea,
937,lounge beach (라운지비치),126.3623,33.2348,"843-17 Changcheon-ri, Andeok-myeon, Seogwipo, Jeju-do, South Korea",Jeju-do,South Korea,
938,숙영정,129.5188,36.7312,,,,
940,maze(미로),128.6684,38.0938,"Osan-ri, Sonyang-myeon, Yangyang-gun, Gangwon-do, South Korea",Gangwon-do,South Korea,
941,octo hill(옥토힐),128.6719,38.0909,"Osan-ri, Sonyang-myeon, Yangyang-gun, Gangwon-do, South Korea",Gangwon-do,South Korea,
942,osan bong(오산봉),128.6747,38.0908,"Osan-ri, Sonyang-myeon, Yangyang-gun, Gangwon-do, South Korea",Gangwon-do,South Korea,
943,hammer(망치),128.6735,38.0962,"Osan-ri, Sonyang-myeon, Yangyang-gun, Gangwon-do, South Korea",Gangwon-do,South Korea,
944,부서진 어초,128.6811,38.0921,"Susan-ri, Sonyang-myeon, Yangyang-gun, Gangwon-do, South Korea",Gangwon-do,South Korea,
945,apt(주공아파트),128.6747,38.1099,"Gapyeong-ri, Sonyang-myeon, Yangyang-gun, Gangwon-do, South Korea",Gangwon-do,South Korea,
946,chan&#039;s(찬스),128.6752,38.1074,"Osan-ri, Sonyang-myeon, Yangyang-gun, Gangwon-do, South Korea",Gangwon-do,South Korea,
948,紫坪,121.4983,22.6318,"Huandao Road, Lvdao Township, Taitung County, Taiwan 951",,Taiwan,
950,Okeetantee Marina,-80.8711,27.1474,"FL-78, Okeechobee, FL 34974, USA",Florida,United States,
951,Röttle Hamn,14.4311,57.9996,"RÖTTLE BY 13, 563 92 Gränna, Sweden",Jönköpings län,Sweden,
955,Blue MaoMao Arch,174.7403,-35.4885,New Zealand,,New Zealand,
957,Aussie Point,157.4441,-8.3157,"New Georgia Group, Solomon Islands",Western Province,Solomon Islands,
958,Marine Away House Reef,124.0284,10.3138,"Lapu-Lapu City, Cebu, Philippines",Central Visayas,Philippines,
959,Rainbow Caves,72.8581,5.4571,,,,
960,Maamunagaa Giri,72.93,5.3627,,,,
963,Mundoo outside,73.536,2.0137,"Unnamed Road, Mundoo, Maldives",,Maldives,
964,Vadinoloo Kandu,73.3606,2.027,"Laamu Atoll, Maldives",South Central Province,Maldives,
967,Skyway Bridge,-82.6545,27.6178,"US-19, Terra Ceia, FL 34250, USA",Florida,United States,
969,Captain Nitros' Drop-off,144.6659,-38.2826,"131 Hesse St, Queenscliff VIC 3225, Australia",Victoria,Australia,
970,Aarah Bodu Thila,72.9351,5.44,"Raa Atoll, Maldives",North Province,Maldives,
971,잠실올림픽수영장,127.0768,37.5131,"10-2 Jamsil 2(i)-dong, Songpa-gu, Seoul, South Korea",Seoul,South Korea,
972,Olhugiri Kandu,73.2602,2.5064,"Thaa Atoll, Maldives",South Central Province,Maldives,
973,Kureli Manta Point,73.3826,2.7651,,,,
976,Iruveli Reef,72.9617,2.9368,,,Maldives,
928,Belmont Hot Springs,-112.1579,41.8553,Wendall Way 18601–18721,UT,United States,
982,Los Arcos,-17.9187,28.5916,"Calle la Bombilla, 47, 38779 La Bombilla, Santa Cruz de Tenerife, España",Canarias,España,
986,Ben's Blue Hole,-78.6108,26.5163,"W Beach Rd, Freeport, The Bahamas",Freeport,The Bahamas,
988,Gaa Huraa Kandu / Van Huraveli Kandu,73.5255,3.1451,,,,
989,Gunsight Reef,-119.4069,34.0092,"Ventura County, CA, USA",California,United States,
990,Lövsta Kalkbrott,17.4097,58.9694,"Norra Sundsvägen 101, 610 74 Vagnhärad, Sweden",Södermanlands län,Sweden,
991,ilha do Pau a Pino,-44.4115,-23.0342,"Angra dos Reis - State of Rio de Janeiro, Brazil",State of Rio de Janeiro,Brazil,
996,Funamadua Housereef,73.1885,0.5337,"Unbenannter Weg, Maldives",Upper South Province,Maldives,
997,Arrifes-Claire,-8.2453,37.0756,"R. Alm. Gago Coutinho 47, 8200 Albufeira, Portugal",Faro,Portugal,
1000,Garang Heang,98.8107,7.6934,Thailand,,Thailand,
1002,Ance Marron,55.8408,-4.3847,,La Digue,,
1003,Pedra D’Eira,-16.7406,32.7348,"Rua Garcia Moniz, 9200 Caniçal, Portugal",Madeira,Portugal,
1005,Parrot Fish Reef,-75.8789,23.6074,,Exuma,,
1006,Koh Hong,98.6807,8.0762,Thailand,,Thailand,
1007,Hulhumale Beyru,73.5468,4.212,"Hirundhu Magu, Malé, Maldives",Male,Maldives,
1009,Copper Harbor,-87.6103,47.4252,"Calumet, MI 49918, USA",Michigan,United States,
1010,Randy’s Reef,-64.5907,18.3568,,,,
1011,뉴서울다이빙풀,126.8813,37.4622,"South Korea, Gyeonggi-do, Gwangmyeong-si, Haan 3(sam)-dong, 61-1",Gyeonggi-do,South Korea,
1012,Rakeedhoo Corner,73.4737,3.3088,Maldives,,Maldives,
1013,Brockway Point,-120.064,33.9091,"Unnamed Road, California, USA",California,United States,
1014,Ko Kradan,99.2584,7.3045,Thailand,,Thailand,
1016,Maavaru Falhi,72.7593,3.7991,,,,
1017,Admiral,73.387,3.8075,,,,
1018,Rannalhi Caves,73.3506,3.912,,,,
1019,Fish Reef,-75.91,23.6358,"Unnamed Road, Emerald Bay, Great Exuma, The Bahamas",,The Bahamas,
1021,Kermitt Corner,73.0293,2.8801,,,Maldives,
1022,Koh Talang Wall,99.3353,6.4878,"Ko Tarutao, Mueang Satun District, Satun, Thailand",Satun,Thailand,
1023,El Monasterio,-13.8679,28.3637,,Kanarische Inseln,Spanien,
1024,Naufragio Nebula,-38.9806,-17.8927,Brazil,,Brazil,
1025,Middle Arch,174.733,-35.4574,New Zealand,,New Zealand,
1028,Millerton Lake,-119.6824,36.9979,"Unnamed Road, Friant, CA 93626, USA",California,United States,
1029,Maagiri Thila,72.766,4.192,,,Maldives,
981,Nemo Garden ,37.7845,23.9742,,,,
1041,Shrimp Boat (Wreck),-83.0034,27.6586,Gulf of Mexico,,United States,
1036,Dry Torugas,-82.8294,24.6498,"Monroe County, FL, USA",Florida,United States,
1042,Keçi Adası,28.2602,36.8053,"48710 Marmaris/Muğla, Türkiye",Muğla,Türkiye,
1044,Mitate (Wreck),138.5137,38.3011,"Japan, 〒952-3206 Niigata, Sado, Mitate, 県道45号",Niigata,Japan,
1048,Summerland Cove Channel,-81.4459,24.6528,"924 Flagship Dr, Summerland Key, FL 33042, USA",Florida,United States,
1049,Maaga Faru South,72.948,3.9878,,,Maldives,
1054,Spotted Bay,-86.9824,16.1012,Honduras,,Honduras,
1056,中正艦,120.6744,22.074,光復路,台湾,台湾,
1059,Koh Haa #6,98.8881,7.4279,,,,
1060,Ngaio Rock,174.738,-35.4895,New Zealand,,New Zealand,
1061,Sandals Reef,-75.8007,23.6032,Atlantic Ocean,,,
1062,Nursery Reef,-75.8912,23.6375,"Unnamed Road, The Bahamas",Exuma,The Bahamas,
1064,Batu Pica,125.1928,1.7967,,,,
1069,Batu Kapal,125.1378,1.8508,,,,
1071,Rannalhi Kuda Giri,73.3692,3.9115,,,,
1072,Appa Thila,73.3712,3.9159,,,,
1073,Vale Giri,73.3728,3.9091,,,,
1074,Dongmas Giri,73.3801,3.907,,,,
1075,Anna&#039;s Giri,73.3796,3.8963,,,,
1076,Macaro Fana Thila,73.3766,3.8884,,,,
1077,Fana Thila,73.3825,3.8835,,,,
1078,Admiral 3,73.353,3.9078,"Unnamed Road, Maldives",,Maldives,
1079,Admiral 1,73.3524,3.8948,"Unnamed Road, Maldives",,Maldives,
1080,Magu 2,73.3526,3.9457,"Kaafu Atoll, Maldives",North Central Province,Maldives,
1081,Vaagali Caves,73.355,3.9507,"Kaafu Atoll, Maldives",North Central Province,Maldives,
1084,Thibisa Far Garden,72.8891,2.9884,,,Maldives,
1086,La Virgen,-96.0647,19.23,,,México,
1088,Point Thila,73.4018,3.9045,,,,
1089,Kalhu Thila,73.4162,3.9122,,,,
1090,Ran Thila,73.4248,3.911,,,,
1091,Nudi Junction,153.1757,-26.6647,,,,
1094,Big Rock,14.82,44.85,,Regione Litoranea Montana di Fiume,Croazia,
1095,Single Rock,14.8424,44.8424,,Regione Litoranea Montana di Fiume,Croazia,
1035,Pedro Point,-119.5196,34.0342,"Ventura, CA 93001, USA",California,United States,
1118,Don Joao Castro Bank,-26.3557,38.2297,,,,
1102,The Merkel,-80.5318,24.9243,"Monroe County, FL, USA",Florida,United States,
1103,Pallas,-81.3803,19.2625,"S Sound Rd, George Town, Cayman Islands",George Town,Cayman Islands,
1104,Pirate’s Cove,-81.3722,19.2637,"S Sound Rd, George Town, Cayman Islands",George Town,Cayman Islands,
1105,Doran Beach,-123.0529,38.307,"201 Doran Beach Rd, Bodega Bay, CA 94923, USA",California,United States,
1108,Coco Banks,-86.5271,15.9922,Honduras,,Honduras,
1109,Wishing Well Cove,-114.5819,36.1414,,AZ,United States,
1111,Ria de Aldán,-8.8227,42.2833,"Lugar Espiñeira, 231, 36945 Aldán, Pontevedra, Espanha",Galicia,Espanha,
1112,Cuyler Harbor,-120.3517,34.0503,"Santa Barbara County, CA, USA",California,United States,
1113,Hole in the Wall,-69.9761,12.4648,"Spaans Lagoenweg, Savaneta, Aruba",,Aruba,
1116,Coral Valey,-27.0709,38.7804,,,,
1117,Oasis,-27.0371,38.6993,,Açores,,
1119,Black Mountain,-27.035,38.711,,Açores,,
1124,Parque Nuevo,-65.017,-42.7716,"Bv. Almte Brown 1346, Puerto Madryn, Chubut, Argentina",Chubut,Argentina,
1125,"Sanford Dam Emergency Spillway Stilling Basin, Sanford, Texas",-101.5529,35.7192,"RM 1319, Sanford, TX 79078, USA",Texas,United States,
1127,Thoddoo South Corner,72.9645,4.4288,"Unnamed Road, Thoddoo, Maldives",,Maldives,
1128,Lhosfushi Kuda Kandu,73.4709,3.8938,"Bahaaru Magu Road, Guraidhoo, Maldives",North Central Province,Maldives,
1129,機場外礁,121.4618,22.6715,"Huandao Road, Lvdao Township, Taitung County, Taiwan 951",,Taiwan,
1131,Roncadores del Faro,-16.6946,28.0,"Unnamed Road, 38632 Arona, Santa Cruz de Tenerife, Spain",Canarias,Spain,
1135,Stadtbad Tempelhof,13.3894,52.4637,"Götzstraße 14-18, 12099 Berlin, Germany",Berlin,Germany,
1136,Stingray City,-81.3434,19.3845,,,,
1140,沖ノ島 (Okinoshima),132.5604,32.7435,"Unnamed Road, Moshima Okinoshimachō, Sukumo, Kochi 788-0677, Japan",Kochi,Japan,
1142,Grow beach,76.9755,8.3888,"Kovalam Beach Rd, Thiruvananthapuram, 695527, India",Kerala,India,
1143,Napoleon Reef,73.4747,3.8991,"Lainoofaru Magu, Guraidhoo, Maldives",,Maldives,
1144,Bolifushi Wreck,73.3994,4.0913,,,,
1145,Masthila,73.3788,4.0723,,,,
1146,Bodu Clementhila,72.9189,3.6322,,,,
1151,Emas Thila,72.7305,3.9346,,,,
1099,Marble Cliffs,-119.6223,34.0213,"Unnamed Road, Ventura, CA 93001, USA",California,United States,
1154,Furana North,73.5489,4.2532,,,,
1155,Furana Thila,73.5487,4.2552,,,,
1156,Furana South,73.5475,4.2466,,,,
1157,Sailboat,-15.753,27.7969,,,,
1159,La Lava,-17.9216,28.5925,"Calle la Bombilla, 49, 38779 La Bombilla, Santa Cruz de Tenerife, España",Canarias,España,
1160,Fort Dade Ruins,-82.7597,27.5747,"Hillsborough County, FL, USA",Florida,United States,
1161,Sunabe Beach,127.742,26.3306,"3-31 Miyagi, Chatan, Nakagami District, Okinawa 904-0113, Japan",Okinawa,Japan,
1162,Yamada Coral farm,127.7927,26.4405,,,Japan,
1163,Sejebådan,11.1554,58.3501,,,Sverige,
1165,Pulau Perhentian - Tokong Laut,102.6603,5.9629,,,,
1169,"Södra, Åsterbrott",11.2315,58.3146,,Västra Götaland,Sverige,
1170,Wee Wee Caye Belize,-88.2763,16.52,Belize,,Belize,
1171,marazul reef,-69.1564,12.3641,"Unnamed Road, Westpunt, Curaçao",Curaçao,Curaçao,
1173,Slope,92.9608,12.0578,India,,India,
1179,San Pedro Underwater Preserve,-80.6809,24.8655,"Monroe County, FL, USA",Florida,United States,
1181,Atlantis,-15.7655,27.8142,,Îles Canaries,Espagne,
1183,Farnsworth Banks,-118.5073,33.3211,"Avalon, CA 90704, USA",California,United States,
1184,Hen Rock,-118.3675,33.4054,"Unnamed Road, Avalon, CA 90704, USA",California,United States,
1185,Bridge Rubble,-80.9707,24.6878,"Monroe County, FL, USA",Florida,United States,
1186,The Plateau,144.6371,-38.2958,"Victoria, Australia",Victoria,Australia,
1187,Conception Island Wall,-75.1316,23.8334,The Bahamas,,The Bahamas,
1188,Seaview Reef,-81.3895,19.2919,"George Town, Cayman Islands",George Town,Cayman Islands,
1189,Spanish Bay Reef,-81.3951,19.3959,"243 Conch Point Road #2 West Bay Grand Cayman KY1, Cayman Islands",West Bay,Cayman Islands,
1193,Krispy Kreme,-79.2886,25.5543,The Bahamas,,The Bahamas,
1194,Light house point,76.9797,8.3829,Vizhinjam lighthouse,,India,
1199,La Rémora ,-78.5276,22.5758,,Provincia de Ciego de Ávila,Cuba,
1200,El Pargo,-78.7891,22.6607,,,,
1201,Los Meros,-78.7435,22.6523,,,,
1204,La Jaula,-78.4856,22.5836,,,,
1205,Los Pinos,-78.5067,22.5884,,,,
1153,Konagaa Thila,72.9192,3.9429,"Alifu Alifu Atoll, Maldives",North Central Province,Maldives,
1217,Racine Reef,-87.1409,30.0854,,,,
1237,Dreimaster (Wreck),11.4547,54.4772,,Mecklenburg-Vorpommern,,
1247,Wheeler Reef,147.5286,-18.7992,,,,
1220,Lewda,-79.3025,25.7243,"Unnamed Road, Alice Town, The Bahamas",,The Bahamas,
1221,"Shark Dorm, Carriacou",-61.494,12.4314,,,Saint Vincent and the Grenadines,
1222,Alværn Brygge,10.6178,59.8186,"1453, Alvernveien 116, 1453 Bjørnemyr, Norway",Akershus,Norway,
1223,Piedra de los Meros,-2.0303,36.806,Spain,,Spain,
1224,Maarehaa Kandu,73.5687,0.4572,"Unnamed Road, Gemanafushi, Maldives",Upper South Province,Maldives,
1225,中寮港,121.4726,22.6757,"951, Taiwan, Taitung County, Lvdao Township, 191",Taiwan Province,Taiwan,
1228,Black Coral Garden,-69.1438,12.2775,Curaçao,Curaçao,Curaçao,
1230,Mangroves,114.5119,-8.0987,"Unnamed Road, Sumber Klampok, Gerokgak, Kabupaten Buleleng, Bali 81155, Indonesia",Bali,Indonesia,
1231,곤포,129.0791,35.0577,전망로 353,부산광역시,대한민국,
1232,豔光礁,120.7067,21.9899,"Wanli Road, Hengchun Township, Pingtung County, Taiwan 946",,Taiwan,
1235,Abu Nawas Garden,34.7971,25.2379,"Al Qusair - Marsa Allam Rd, Qesm Marsa Alam, Red Sea Governorate, Egypt",Red Sea Governorate,Egypt,
1236,LaBelle (Wreck),11.4033,54.2963,,Schleswig-Holstein,,
1246,Kovalam,76.9719,8.395,"The Leela Kovalam, Thiruvananthapuram, India",Kerala,India,
1248,Spetsen Kullen,12.4455,56.3026,"Unnamed Road, 263 77 Mölle, Sweden",Skåne län,Sweden,
1250,pared ,-13.6613,28.9188,"Av. de las Playas, 21, 35510 Tías, Las Palmas, Spain",Canarias,Spain,
1252,Rönneå å mynningen,12.8336,56.2723,"Segelvägen 17, 262 61 Ängelholm, Sweden",Skåne län,Sweden,
1253,Svanshall Skälderviken,12.6614,56.2531,"SVANSHALLS HAMN 1NA, 263 92 Jonstorp, Sweden",Skåne län,Sweden,
1254,Visitgrottan Kullaberg,12.4627,56.3028,"Unnamed Road, 263 77 Mölle, Sweden",Skåne län,Sweden,
1259,Bassin Vert,57.3819,-20.2467,Royal Road,Black River,Маврикий,
1261,Middle Point,73.4706,3.8925,"Bahaaru Magu Road, Guraidhoo, Maldives",North Central Province,Maldives,
1262,Jack Point,73.4678,3.8922,"Bodu Magu, Guraidhoo, Maldives",North Central Province,Maldives,
1263,Kandoo Kan,73.4782,3.9039,"Unnamed Road, Guraidhoo, Maldives",North Central Province,Maldives,
1264,Cocoa Beru,73.4885,3.9157,"Kaafu Atoll, Maldives",North Central Province,Maldives,
1265,Cocoa Corner,73.4819,3.9084,,,,
1215,Falcon Reef,-80.1169,25.718,"Miami-Dade County, FL, USA",Florida,United States,
1269,Ilha do Farol - Alcatrazes,-45.7026,-24.0952,Brazil,,Brazil,
1274,Pampang Tengah South,103.7299,1.2246,,,,
1275,Jong South,103.6864,1.2145,"Semakau Island - Pasir Panjang, Singapore",,Singapore,
1276,Semakau West,103.7543,1.2041,,Singapore,Singapore,
1284,Capirotes,-97.2141,21.5659,Gulf of Mexico,,Mexico,
1285,Tiger Reef,104.0572,2.8918,Malaysia,,Malaysia,
1286,Batterie,57.3517,-20.281,Mauritius,,Mauritius,
1287,Shivala,57.3384,-20.3117,Mauritius,,Mauritius,
1288,SS Regolo (Wreck),14.8043,45.0096,,Primorsko-goranska županija,,
1290,Pedra do Ouro,-8.2706,36.9997,Portugal,,Portugal,
1291,Caneca Wall,-8.3706,37.0393,Portugal,,Portugal,
1293,Big Sur,-121.8491,36.2318,"Monterey County, CA, USA",California,United States,
1296,Padar Kecil,119.5391,-8.6834,,Oost-Nusa Tenggara,Indonesië,
1303,Iron Bound Bay,-118.5888,33.4545,"Avalon, CA 90704, USA",California,United States,
1305,Cactus Bay,-118.6034,33.4734,"Avalon, CA 90704, USA",California,United States,
1306,Ship Rock,-118.4916,33.4621,"Avalon, CA 90704, USA",California,United States,
1311,Um Halhalla,34.7689,25.3163,,Red Sea Governorate,,
1312,Toshi gandu kolhu,73.4125,5.7356,,,,
1313,中正艦沉船,120.6585,22.0753,Taiwan,,Taiwan,
1315,The Fingers,-80.3211,25.169,"Monroe County, FL, USA",Florida,United States,
1316,Portinho Atalaia,-16.8178,32.6499,"Estr. do Portinho 89, 9125 Gaula, Portugal",Madeira,Portugal,
1317,Boje,13.7771,47.8781,"Nachdemsee 35, 4813 Altmünster am Traunsee, Österreich",Oberösterreich,Österreich,
1318,Houseboat (Wreck),-80.05,26.0881,"Broward County, FL, USA",Florida,United States,
1320,Bugis,104.2176,2.7449,,Johore,Malaysia,
1268,Profundo,-65.0057,-42.765,,Chubut,,
1377,Dropzone,33.1469,-27.0297,South Africa,,South Africa,
1330,Cela 12/20 Wall,-8.3293,37.0404,Portugal,,Portugal,
1331,Rain Barrel,-120.0006,33.9822,"Santa Barbara County, CA, USA",California,United States,
1332,Wycoff Ledge,-120.3502,34.0172,"Santa Barbara County, CA, USA",California,United States,
1336,Sol La Palma House Reef,-17.9106,28.5823,"Ctra. Charco Verde, 255F, 38769 Los Llanos, Santa Cruz de Tenerife, España",Canarias,España,
1341,Loggerhead,-80.034,26.9444,"Palm Beach County, FL, USA",Florida,United States,
1342,"Snapper Crack
",-82.8815,27.9823,"Pinellas County, FL, USA",Florida,United States,
1343,Hammerhead Site,-79.3055,25.709,"Unnamed Road, The Bahamas",Bimini,The Bahamas,
1345,L.A. Fitness,-81.5189,28.5754,"1560 E Silver Star Rd, Ocoee, FL 34761, USA",Florida,United States,
1347,Bridges of Ross,-9.8663,52.591,"Coast Rd, Ross, Co. Clare, Ireland",County Clare,Ireland,
1350,Manchones,-86.7465,21.201,Mexico,,Mexico,
1355,Crab Pot Ledge,-82.8439,27.7502,Gulf of Mexico,,United States,
1358,Masovice,15.9856,48.8587,"Mašovice 158, 669 02 Mašovice, Czechia",Jihomoravský kraj,Czechia,
1359,"La Zélée, Tahiti",-149.5792,-17.5303,"Unnamed Road, Papeete, Polynésie française",Îles du Vent,Polynésie française,
1360,Mike’s Wreck (Hannah M. Bell),-80.2998,25.1606,"Monroe County, FL, USA",Florida,United States,
1364,Bomb Rock East,74.3242,14.0105,,,,
1365,Bomb Rock West,74.3222,14.0106,,,,
1373,T-55,74.327,14.0202,,,,
1374,Grouper Point,74.3321,14.0175,,,,
1375,Shaan Wreck,74.3292,14.0134,,,,
1376,Bomb Bay,74.3248,14.0152,,,,
1378,Borovnik,15.25,43.8103,"



",Zadarska županija,,
1379,"Nanos, wreck",14.5722,44.8826,,,,
1329,Manta City,-81.3821,13.3096,"Unnamed Road, Providencia, San Andrés y Providencia, Colombia",San Andrés y Providencia,Colombia,
1393,Triton Madratsi Xylofagou,33.838,34.9568,"Xylofagou, Cyprus",Larnaca,Cyprus,
1386,Shark Junction,-78.5976,26.4945,,,,
1391,Toyon Cove,-118.3516,33.3762,"Avalon, CA 90704, USA",California,United States,
1395,Bom Rei (Naufrágio),-17.1251,32.6896,"R. da Esperança, 9360, Portugal",Madeira,Portugal,
1397,Aquario Porto Moniz,-17.1657,32.8674,Porto Moniz,,Portugal,
1406,Parede do Cristo Rei,-16.8511,32.6365,"Unnamed Road, 9125 Caniço, Portugal",Madeira,Portugal,
1407,Baía dos Porcos,-16.8485,32.6387,"Estrada do Cristo Rei 351, 9125-057 Caniço, Portugal",Madeira,Portugal,
1408,Canavial,-17.2232,32.7194,,,,
1409,Baixa da Gerarda,-17.1517,32.8581,"Ilheus da Rib, Portugal",,Portugal,
1414,La Concepcion (Wreck),-80.05,25.8492,United States,,United States,
1415,Toilet Bowl,127.8464,26.5041,,Okinawa,Japan,
1416,TB388,17.8555,58.7723,"Landsort 2401, 149 95 Nynäshamn, Sweden",Stockholms län,Sweden,
1417,Isla San Jose,-110.6223,24.9904,"La Paz, Baja California Sur, Mexico",Baja California Sur,Mexico,
1423,Ihana,121.6652,-0.176,"Lembanya, Una-Una, Tojo Una-Una Regency, Central Sulawesi, Indonesia",Central Sulawesi,Indonesia,
1424,Applegate River Bridge,-123.1524,42.0123,"14339 Upper Applegate Rd, Jacksonville, OR 97530, USA",Oregon,United States,
1425,Carberry Creek,-123.1631,42.0218,"NF-10, Jacksonville, OR 97530, USA",Oregon,United States,
1427,Ras Burg,34.2516,27.7586,,,,
1428,Farol,-16.6559,32.7317,Portugal,,Portugal,
1432,El Violín,-96.1324,15.7384,"Unnamed Rd, Oax., Mexico",Oaxaca,Mexico,
1382,Ilha  Filhote ,-41.8262,-22.781,Búzios ,,Brasil,
1446,vallèe  des corysnes,167.4139,-22.5301,,New Caledonia,New Caledonia,
1447,kov-guie ,167.4049,-22.5379,,New Caledonia,New Caledonia,
1448,"Gålö, Morarna
",18.2824,59.0831,"Skälåkersvägen, 136 91 Haninge, Sweden",Stockholms län,Sweden,
1450,Ann’s Attic,-80.087,19.6828,"N Coast Rd W, Cayman Islands",,Cayman Islands,
1452,"Scuba Cove, Lake Amistad, Texas",-101.0043,29.4814,"Unnamed Road, Del Rio, TX 78840, USA",Texas,United States,
1454,Captain Slate's Scuba Adventures,-81.4067,24.6616,"27303 Antigua Rd, Ramrod Key, FL 33042, USA",Florida,United States,
1455,Utheemu Reef,73.1073,6.8391,"Ganduvaru Magu, Utheemu, Maldives",Upper North Province,Maldives,
1456,Kelaa,73.2013,6.9232,"Haa Alifu Atoll, Maldives",Upper North Province,Maldives,
1458,Hondaidhoo Thila,73.0909,6.7666,"Haa Dhaalu Atoll, Maldives",Upper North Province,Maldives,
1927,El Tajo,-1.1585,37.5408,,Murcia,Spain,
1491,"Lime Kiln, Carriacou",-61.4975,12.4488,"Unnamed Road, Grenada",Carriacou and Petite Martinique,Grenada,
1492,"Dry Rock, Carriacou",-61.4819,12.4198,Grenada,,Grenada,
1493,"Pagodas Garden, Carriacou",-61.4813,12.4164,Grenada,,Grenada,
1500,Cueva de las Gambas,-13.6699,28.9182,"Paseo Barrilla, 2, 35510 Tías, Las Palmas, Spain",Canarias,Spain,
1502,Anglers Fishing Pier,-86.5903,30.3922,"1450 Miracle Strip Pkwy SE, Fort Walton Beach, FL 32548, USA",Florida,United States,
1505,Thakandhoo Corner,72.996,6.8392,"Unnamed Road, Thakandhoo, Maldives",Upper North Province,Maldives,
1506,Mulidhoo Aquarium,73.0125,6.8421,"Haa Alifu Atoll, Maldives",Upper North Province,Maldives,
1508,Filladhoo Thila,73.2235,6.8433,"Haa Alifu Atoll, Maldives",Upper North Province,Maldives,
1510,Dhonakulhi Kandu,73.048,6.8432,"Haa Alifu Atoll, Maldives",Upper North Province,Maldives,
1511,Hanimaadhoo Thila,73.1583,6.7584,"Haa Dhaalu Atoll, Maldives",Upper North Province,Maldives,
1512,Hondaafushi Wreck,73.114,6.779,"Haa Dhaalu Atoll, Maldives",Upper North Province,Maldives,
1513,Cathedral,72.9578,6.8563,"Haa Alifu Atoll, Maldives",Upper North Province,Maldives,
1515,Épave L’Astrée,3.1421,42.5277,,Occitanie,,
1518,Maafahi Back,73.1488,6.829,"Haa Alifu Atoll, Maldives",Upper North Province,Maldives,
1529,Hong Kong,121.6463,-0.2026,Indonesia,,Indonesia,
1532,Airport  Beyru,73.5333,4.1765,"Midhili Magu, Malé, Maldives",Male,Maldives,
1534,Sea Lion Cave,-119.4078,34.0066,"Ventura, CA 93001, USA",California,United States,
1536,Chitales,-86.7435,21.1546,"Punta Nizuc - Cancún, Punta Cancun, Zona Hotelera, 77500 Cancún, Q.R., Mexico",Quintana Roo,Mexico,
1537,Arch Rock,-119.3572,34.0172,"Unnamed Road, Ventura, CA 93001, USA",California,United States,
1538,MS Erner Kaulke (Wreck),11.0073,54.5253,Baltic Sea,,Germany,
1490,"Troll Wreck, Carriacou",-61.5151,12.4831,Grenada,Carriacou and Petite Martinique,Grenada,
1547,Haua Ketir,33.9627,27.1871,Red Sea,,Egypt,
1549,Hollywood Deep,-79.9987,26.0467,United States,,United States,
1551,John M. Baker Memorial,-80.045,26.1682,"Broward County, FL, USA",Florida,United States,
1554,moyadons,5.3685,43.1776,,,France,
1556,Grouper Gully,-74.54,24.0527,,Bahamas,Bahamas,
1558,Lake Sonoma,-123.0156,38.7164,"14218 Rockpile Rd, Geyserville, CA 95441, USA",California,United States,
1559,"Canal Trazar
",57.3544,-20.2822,Mauritius,,Mauritius,
1560,Humps,-62.9781,17.4636,"Rte 1, Caribbean Netherlands",Sint Eustatius,Caribbean Netherlands,
1562,Blair Reef,-62.9917,17.4706,"Unnamed Road, Caribbean Netherlands",Sint Eustatius,Caribbean Netherlands,
1563,Bonnie’s,-80.0451,26.9472,"Palm Beach County, FL, USA",Florida,United States,
1564,Boca Artificial Reef,-79.9017,26.3177,United States,,United States,
1566,4th Window,-80.026,26.6942,"597 S Ocean Blvd, Palm Beach, FL 33480, USA",Florida,United States,
1567,Crossing,118.7671,9.6837,Philippines,MIMAROPA,Philippines,
1568,"Ranveli Thila 
",72.9614,3.6155,"Unnamed Road, Dhangethi, Maldives",North Central Province,Maldives,
1569,Cabeço da Sapata,-32.4769,-3.8736,Rua Dom Juruquinha I 66–340,RN,Brasil,
1570,Blue Hole,-16.8243,32.6448,"Reis Magos, 9125 Caniço, Portugal",Madeira,Portugal,
1573,Hjärtsjön Badplatsen Lenhovda,15.2578,57.05,"Unnamed Road, 360 71 Norrhult, Sweden",Kronobergs län,Sweden,
1574,"Million Hope, Wreck",34.4483,28.0562,"Coast Rd, Qesm Sharm Ash Sheikh, South Sinai Governorate, Egypt",South Sinai Governorate,Egypt,
1575,Shaab Abu Nuhas,33.9331,27.571,Egypt,,Egypt,
1577,Triangle Jetty,-124.2085,43.6667,"Salmon Harbor Dr, Winchester Bay, OR 97467, USA",Oregon,United States,
1578,Woahnik Lake,-124.103,43.9295,"5467 Canary Rd, Florence, OR 97439, USA",Oregon,United States,
1580,Lighthouse,118.7723,9.7225,"Puerto Princesa, Palawan, Philippines",MIMAROPA,Philippines,
1583,Los Picachos,-111.2211,25.8841,Mexico,,Mexico,
1584,Piedra Blanca,-111.2109,25.9276,Mexico,,Mexico,
1586,Swimming Track ,73.5135,4.1695,"Maldives, 拉克 代 夫 海 Malé",Male,Maldives,
1587,Conch Cut,-76.5226,24.2811,"Black Point, The Bahamas",Black Point,The Bahamas,
1588,Jeep Reef,-76.5948,24.3409,"Unnamed Road, The Bahamas",,The Bahamas,
1590,Hathaway Bridge,-85.7373,30.1874,"5611 FL-30A, Panama City, FL 32405, USA",Florida,United States,
1592,Mersin Dalış MerkeziSilifke/Susanoğlu,34.0909,36.4162,"Atakent, 5. Sk. No:2, 33990 Silifke/Mersin, Turkey",Mersin,Turkey,
1593,El Rielero,-95.8349,19.1411,Gulf of Mexico,,Mexico,
1594,Ana Elena,-95.8624,19.1691,México,Veracruz,México,
1544,"Jahat, Tioman Island",104.1718,2.6677,Malaysia,,Malaysia,
1600,Moss Reef,-79.9797,26.2803,United States,,United States,
1603,Goat Island,-92.0865,35.513,,AR,United States,
1604,"Paraha Peue, Tahiti",-149.6109,-17.538,Polynésie française,Îles du Vent,Polynésie française,
1606,"Dredger Rock, Mahé",55.3999,-4.6171,"Unnamed Road, Bel Ombre, Seychelles",Bel Ombre,Seychelles,
1607,Cabedelo,-8.6709,41.1416,Portugal,Porto,Portugal,
1608,Jake's Drop Off,-76.4572,24.165,"Unnamed Road, The Bahamas",,The Bahamas,
1612,The Dome,-169.9262,-19.0145,"Makefu, Niue",Makefu,Niue,
1613,Puntilla Barco,-95.3127,18.7269,Mexico,,Mexico,
1616,Shark Canyon ,-80.0046,26.8927,"Palm Beach County, FL, USA",Florida,United States,
1617,Tampachichi,-97.669,21.9783,Gulf of Mexico,,Mexico,
1620,Old Highway 25 Boat Ramp,-92.0145,35.5341,Old Highway 25 1590–1598,AR,United States,
1623,Petrie’s Pillar,-68.2963,12.1844,"Bulevar Gob. N. Debrot, Kralendijk, Caribbean Netherlands",Bonaire,Caribbean Netherlands,
1624,Carysfort Lighthouse Reef,-80.2196,25.2092,United States,,United States,
1625,Oleai,145.4189,15.1045,Northern Mariana Islands,,Northern Mariana Islands,
1634,Chun Zumbul Deep,-87.044,20.6358,"Calle 88 Nte, Playa del Carmen, Q.R., Mexico",Quintana Roo,Mexico,
1640,Muelle la Azohía,-1.1713,37.5529,,Murcia,España,
1642,Kaisergasthof,13.5689,47.8997,"ATO Weyregg/Attersee Schiffstation, 4852 Weyregg am Attersee, Austria",Oberösterreich,Austria,
1645,Cristo do Mar,-22.904,16.5944,"Unnamed Road, Santa Maria, Cape Verde",Sal,Cape Verde,
1646,Ras Gomaa,34.4693,28.0063,Ägypten,,Ägypten,
1598,Eco House Reef,-22.8997,16.5942,"R. 15 Agosto, Santa Maria, Kap Verde",Sal,Kap Verde,
1697,Rebecca Scholes ,-82.4001,24.5366,United States,,United States,
1658,Ouro Porto,-8.6426,41.1474,"R. do Ouro 797, 4150 Porto, Portugal",Porto,Portugal,
1659,"Cais do Lugan, Rio Douro",-8.6361,41.1458,"Cais do Lugan Nº250, 4400-492 Vila Nova de Gaia, Portugal",Porto,Portugal,
1662,Biotopos Segur Calafell,1.6153,41.1622,España,Catalunya,España,
1665,Hinkelsteine,13.5464,47.8125,"Forstamt 20, 4854 Forstamt, Austria",Oberösterreich,Austria,
1666,Selsey Drift (the Parks),-0.7365,50.7323,United Kingdom,,United Kingdom,
1667,HMS Sapper,-0.6974,50.6185,United Kingdom,,United Kingdom,
1668,Hedwig Lunstedt,-0.6768,50.6054,United Kingdom,,United Kingdom,
1669,Gascony,-0.674,50.6551,United Kingdom,,United Kingdom,
1670,Shirala,-0.6163,50.6743,United Kingdom,,United Kingdom,
1671,HMS Northcoates,-0.5779,50.6725,United Kingdom,,United Kingdom,
1672,Hound Reef West,-0.8354,50.7258,United Kingdom,,United Kingdom,
1676,UB1195,-0.8415,50.5783,United Kingdom,,United Kingdom,
1677,T&#039;pot,-0.8013,50.6868,United Kingdom,,United Kingdom,
1678,Prince Leopold,-0.841,50.6154,United Kingdom,,United Kingdom,
1680,Nab Tower,-0.9611,50.6633,United Kingdom,,United Kingdom,
1656,Maritime Colege,-8.3263,51.832,"Ringaskiddy (Opp Deep Water Berth), Ballybricken, Co. Cork, Ireland",County Cork,Ireland,
2003,HMS Hogue,3.8533,52.2258,,Zuid-Holland,,
2072,S50,17.5202,55.0566,Baltic Sea,,,
2293,OSC Ledge,-83.0084,27.3366,Gulf of Mexico,,United States,
2392,Tolten (Wreck),-73.6441,40.1301,United States,,United States,
2509,Liberty Ship Wallace (Wreck),-87.8329,29.9418,Gulf of Mexico,,United States,
2610,Betonowiec,17.6668,55.0139,Baltic Sea,,,
2611,"JU 88, wreck",17.7658,55.0156,Baltic Sea,,,
2612,Beng Sture,17.7377,55.144,Baltic Sea,,,
2614,Terra,17.941,55.0387,Baltic Sea,,,
2714,SS Arrow,-58.9948,44.638,"Municipality of the District of Guysborough, NS, Canada",Nova Scotia,Canada,
2755,Triple Rig,-88.4858,29.8057,Gulf of Mexico,,United States,
2766,Radio Tower,-118.8143,33.6866,United States,,United States,
3021,S.S. Trevier (Wreck),3.7329,52.4366,,,,
3051,Wrak Jan Heweliusz,14.2131,54.6113,Baltic Sea,,,
3052,Halstenbek,14.9918,54.5141,Baltic Sea,,,
3382,Saveiros,-34.6091,-8.0983,Brazil,,Brazil,
3461,Texas Deep,33.1437,-26.8144,Mozambique,,Mozambique,
3464,Idols,33.1313,-26.804,Mozambique,,Mozambique,
3465,Playground,33.1244,-26.7718,Mozambique,,Mozambique,
3466,Turtle Creek,33.1471,-26.7948,Mozambique,,Mozambique,
3468,Lighthouse Reef,33.1382,-26.7915,Mozambique,,Mozambique,
3591,airplane 747,50.9746,26.5987,,,,
3632,"Lara, wreck",34.4654,28.007,Egypt,,Egypt,
3640,Hin Daeng/หินแดง,98.8209,7.1523,ตำบล เกาะลันตาใหญ่ อำเภอเกาะลันตา กระบี่ ประเทศไทย,กระบี่,ประเทศไทย,
1,Rocky island,36.2428,23.5642,,,,
4368,備前 浅場(BizenⅡ),135.4518,33.2719,,,日本,
4378,"CrackerJack, ribbon reef",146.4241,-16.1503,,,,
5157,USS Schurz (Wreck),-76.7289,34.4193,,,,
5177,Frunze,31.3216,46.1584,,,Украина,
5244,Kraken Wreck,-94.1717,28.2663,,,,
5779,Florida,-34.5946,-8.0345,,,,
5780,Lupus,-34.6321,-8.2023,,,,
5782,Mercurius,-34.6191,-8.0628,,,,
5785,Minuano,-34.7005,-8.2524,,,,
5786,Taurus,-34.6504,-8.0825,,,,
5811,Batelao de Cima,-34.6294,-8.1283,,,,
5812,Vapor dos 48,-34.5768,-8.1432,,,,
5813,Veleiro Orca,-34.6345,-8.1602,,,,
5860,SS Duke of Buccleugh,-0.3434,50.4874,,,,
6116,Bhatkal  Wreck,74.2536,13.202,,Karnataka,,
6684,NW Barges,-73.8,39.7,,,Spain,
7249,Atlas,-76.2421,34.5283,Dunstan Lane 1349,Virginia,United States,
7355,Matswa,35.7614,-23.1267, ,Inhambane Province,Mozambique,
7357,Grand Canyon,35.797,-23.0875, ,Inhambane Province,Mozambique,
7545,FV Lena,115.339,-33.206,,,,
7688,Daedalus Reef,35.6069,24.9661,,,,
7790,"USS Oriskany Wreck, Pensacola, Florida",-87.2661,29.9657,Gulf of Mexico,,,
7816,Pinellas #3 Reef,-83.2127,27.7701,Gulf of Mexico,,United States,
7947,Woodhouse Reef,34.4658,28.0003,,,,
8178,NW Corner,144.8661,-38.7295,Victoria,Victoria,Australia,
8313,Ten Fathom (Wreck),-83.036,27.5427,Gulf of Mexico,,United States,
8438,Devil City,130.1017,4.5251,,,,
9015,"South Laguna Reef, Tiran Island",34.4856,27.9936,sharm el sheikh,South Sinai Governorate,Egypt,
9075,S.S. L’ILLA /CARBONERO,-0.3752,37.4712,Spain,,Spain,
9112,Navy tug ,-87.2858,30.0105,Gulf of Mexico,,United States,
9196,Tanja,-69.4164,17.4189,"Boulevar de Juan Dolio, Playa Juan Dolio 21000, Dominican Republic",San Pedro de Macorís Province,Dominican Republic,
9357,Bat Caves,33.8567,34.9428,,,,
9808,Durar rigs,49.098,28.942,Persian Gulf (also known as the Arabian Gulf),,,
9870,"Stetson Bank, Flower Gardens",-94.3,28.17,,,,
9871,"West Flower Garden Bank, Gulf of Mexico",-93.82,27.88,Gulf of Mexico,,,
9872,"East Flower Garden Bank, Gulf of Mexico",-93.6,27.91,Gulf of Mexico,,,
10021,Sheep Dip,33.8302,34.9605,,,,
10063,Jackson Reef,34.4652,28.0059,Tiran,Sharm El Sheikh,Egypt,
10108,The LuLu (Wreck),-87.55,29.9972,Gulf of Mexico,,United States,
10111,YDT-15 (Navy Dive Tender Wreck),-87.1592,30.0878,Gulf of Mexico,,United States,
10516,Relitto Concordia (Wreck),9.5173,43.8563,,,,
10728,Doodles,33.1077,-27.0202,Mozambique,,Mozambique,
10822,Aeolus (Wreck),-76.6645,34.3603,Morehead city ,NC,United States,
10975,Chevron Oil Rig,-87.2519,30.046,Gulf of Mexico,,United States,
11460,SS English trader,2.0106,52.9722,Hammond knoll ,,,
12162,Weber&#039;s Joy,68.3165,12.2064,,,,
12485,Gonçalo Coelho,-34.7048,-8.4125,Brazil,,Brazil,
12520,Abrolhos / Chapeirão Faca Cega,-38.4106,-18.0357,Parque Nacional Marinho dos Abrolhos-BA,Gao,Mali,
12771,Papoose (Wreck),-76.6738,34.1907,Atlantic Ocean,,,
13215,Landing Strip,-80.477,24.6891,United States,,United States,
13627,"North Laguna Reef, Strait of Tiran",34.4881,28.0113,Saudi Arabia,,Saudi Arabia,
13724,Lizzie D - Rum Runner (Wreck),-73.3232,40.2013,Taft St 785,NY,United States,
13781,Umbrella,-80.8091,29.3475,United States,,United States,
13821,"Satoya,  Ägypten ",35.7325,24.8101,,Bayern,Deutschland,
14196,Akrotiri Cliffs,33.0345,34.574,,,,
14338,Keeper Reef,147.2672,-18.7498,"Hinchinbrook, QLD, Australia","null, null",Australia,
14592,Corveta Camaquã,-34.4243,-7.7869,Brazil,,Brazil,
14754,"Fehmarn, Zweimaster Wrack",11.4118,54.4815,,,,
15057,Amberjack Rocks,-86.9212,30.1611,Gulf of Mexico,,United States,
15107,Johnson Reef,-82.7946,27.224,Gulf of Mexico,,United States,
15259,Bridge Span 8,-85.8327,29.9033,Gulf of Mexico,,United States,
15261,Michelin Man,-85.7228,29.7196,Gulf of Mexico,,United States,
15371,Shark Hotel,-72.475,22.0166,"Caicos Islands, Turks and Caicos Islands",Caicos Islands,Turks and Caicos Islands,
15436,New Venture,-87.6351,29.4575,Gulf of Mexico,,,
15625,Aquarium,-86.4827,20.5576,Mexico,,Mexico,
16195,Barwon Banks,153.442,-26.6333,,,,
16540,Blacks,33.1147,-26.9586,"Ponta Beach Drive, Ponta do Ouro, Mozambique",,Mozambique,
16596,Fraggle Rock,33.7369,34.9781,,,,
16731,Skali,33.8384,34.9564,"Xylofagou, Cyprus",Larnaca,Cyprus,
16776,Marmara,33.8393,34.9551,,,,
16811,GBA Reef,39.5636,19.4728,,,,
16893,Andrea Doria,-72.4262,39.8126,,,,
16898,Liani,33.8536,34.9451,,,,
16922,Anna&#039;s Reef (شعاب آنا),38.5277,21.3954,,"null, null",,
17157,Coral  Bank,97.2986,10.0846,,,,
17158,Silver Tip Bank,97.1848,10.209,,,,
17159,Hackford Bank,97.2548,10.3257,,,,
17213,Secca della Colombara,13.1048,38.4348,,,,
17240,Secret Garden ,115.9089,8.7237,"Unnamed Road, Pelangan, Sekotong Tengah, Kabupaten Lombok Barat, Nusa Tenggara Bar. 83365, Indonesia",Nusa Tenggara Barat,Indonesia,
17266,Cod Grounds Marine Park,153.11,-31.6737,New South Wales,New South Wales,Australia,
17326,Coliseum / Hospital,35.8319,-23.8381,,,,
17352,Trade Me Reef,174.4889,36.2813,New Zealand,Auckland,New Zealand,
17372,Dente  di  Cane,8.5024,38.5232,Vico Secondo Mediterraneo 1–3,Sardinia,Italy,
17493,El Coreano,-15.2208,27.5906,Paseo Marítimo de Taliarte ,,Spain,
17767,Bohar Sorayer,36.2305,24.4203,,,,
17832,12 Foot Ledge,-83.0485,27.6257,,,,
17941,Hans Schmidt (Wreck),13.3547,44.5427,,,,
17955,Giuseppe Dezza,13.4095,44.5861,"Općina Bale, Croatia",Istarska županija,Croatia,
17971,Baron Gautsch (Wreck),13.3493,44.564,,,,
17972,Wreck Varese,13.414,44.4991,,,,
17977,"USTS Texas Clipper TPWD Wreck, Texas",-96.8592,26.1891,Gulf of Mexico,,,
18036,Tukau Drop-off,113.0,4.4,Jalan Kingsway,Sarawak,Malaysia,
18081,Wreck Numidia ,13.1802,45.016, ,,Croatia,
18384,"Maona, wreck",13.375,44.5998,"Općina Rovinj, Croatia",Istarska županija,Croatia,
18389,Wreck John Gilmore,13.3719,44.5021,,,,
18661,Wreck Romagna,13.2249,44.5982,,,,
18871,R/V Big Dog (Air Force),-86.6679,30.107,,,,
19065,Blackthorn (Wreck),-83.19,27.875,"Pinellas County, FL, USA",Florida,United States,
19118,Sheridan (Wreck),-83.1858,27.8763,Gulf of Mexico,,United States,
3,Brown Pants,-64.5664,18.3288,"Unnamed Road, British Virgin Islands",Other Islands,British Virgin Islands,
1442,Cais do Seixal,-17.1016,32.8224,"Caminho da Delfina Fernandes Correia, 9270 Seixal, Portugal",Madeira,Portugal,
